{"type": "FeatureCollection", "features": [ {"type": "Feature", "properties": {"norad_id": 66600, "name": "STARLINK-35980", "group": "last-30-days", "lat": -37.104173431854555, "lon": 32.88853317613468, "alt_km": 445.030386371086, "timestamp": "2025-12-18T13:51:48.378932+00:00", "meta": {"OBJECT_NAME": "STARLINK-35980", "OBJECT_ID": "2025-270N", "EPOCH": "2025-12-18T06:00:02.999808", "MEAN_MOTION": 15.43282073, "ECCENTRICITY": 0.00010492, "INCLINATION": 43, "RA_OF_ASC_NODE": 160.5162, "ARG_OF_PERICENTER": 254.5488, "MEAN_ANOMALY": 326.6676, "EPHEMERIS_TYPE": 0, "CLASSIFICATION_TYPE": "U", "NORAD_CAT_ID": 66600, "ELEMENT_SET_NO": 999, "REV_AT_EPOCH": 518, "BSTAR": -0.076631324, "MEAN_MOTION_DOT": -0.03068918, "MEAN_MOTION_DDOT": 0}, "tle": {"line1": "1 66600U 25270N   25352.25003472 -.03068918  00000+0 -76631-1 0  9994", "line2": "2 66600  43.0000 160.5162 0001049 254.5488 326.6676 15.43282073  5183"}}, "geometry": {"type": "Point", "coordinates": [32.88853317613468, -37.104173431854555]}}, {"type": "Feature", "properties": {"norad_id": 66601, "name": "STARLINK-35978", "group": "last-30-days", "lat": 24.403691487868088, "lon": -50.27233409993706, "alt_km": 440.71908221084686, "timestamp": "2025-12-18T13:51:48.378945+00:00", "meta": {"OBJECT_NAME": "STARLINK-35978", "OBJECT_ID": "2025-270P", "EPOCH": "2025-12-18T06:00:02.999808", "MEAN_MOTION": 15.40686691, "ECCENTRICITY": 0.00017738, "INCLINATION": 42.9991, "RA_OF_ASC_NODE": 160.7525, "ARG_OF_PERICENTER": 256.8954, "MEAN_ANOMALY": 226.515, "EPHEMERIS_TYPE": 0, "CLASSIFICATION_TYPE": "U", "NORAD_CAT_ID": 66601, "ELEMENT_SET_NO": 999, "REV_AT_EPOCH": 512, "BSTAR": 0.00043184138, "MEAN_MOTION_DOT": 0.0001777, "MEAN_MOTION_DDOT": 0}, "tle": {"line1": "1 66601U 25270P   25352.25003472  .00017770  00000+0  43184-3 0  9999", "line2": "2 66601  42.9991 160.7525 0001773 256.8954 226.5150 15.40686691  5123"}}, "geometry": {"type": "Point", "coordinates": [-50.27233409993706, 24.403691487868088]}}, {"type": "Feature", "properties": {"norad_id": 66602, "name": "STARLINK-36050", "group": "last-30-days", "lat": 39.22346696534261, "lon": -139.7918629306057, "alt_km": 438.5222769854345, "timestamp": "2025-12-18T13:51:48.378956+00:00", "meta": {"OBJECT_NAME": "STARLINK-36050", "OBJECT_ID": "2025-270Q", "EPOCH": "2025-12-18T04:14:03.920928", "MEAN_MOTION": 15.40722232, "ECCENTRICITY": 0.00014492, "INCLINATION": 42.9987, "RA_OF_ASC_NODE": 161.3579, "ARG_OF_PERICENTER": 272.6572, "MEAN_ANOMALY": 87.4119, "EPHEMERIS_TYPE": 0, "CLASSIFICATION_TYPE": "U", "NORAD_CAT_ID": 66602, "ELEMENT_SET_NO": 999, "REV_AT_EPOCH": 508, "BSTAR": 0.00090071849, "MEAN_MOTION_DOT": 0.00037535, "MEAN_MOTION_DDOT": 0}, "tle": {"line1": "1 66602U 25270Q   25352.17643427  .00037535  00000+0  90072-3 0  9990", "line2": "2 66602  42.9987 161.3579 0001449 272.6572  87.4119 15.40722232  5083"}}, "geometry": {"type": "Point", "coordinates": [-139.7918629306057, 39.22346696534261]}}, {"type": "Feature", "properties": {"norad_id": 66603, "name": "STARLINK-36048", "group": "last-30-days", "lat": -0.0269557538301823, "lon": -21.197391928182448, "alt_km": 443.8527234188323, "timestamp": "2025-12-18T13:51:48.378967+00:00", "meta": {"OBJECT_NAME": "STARLINK-36048", "OBJECT_ID": "2025-270R", "EPOCH": "2025-12-18T06:00:02.999808", "MEAN_MOTION": 15.40686151, "ECCENTRICITY": 0.00014262, "INCLINATION": 42.9994, "RA_OF_ASC_NODE": 160.662, "ARG_OF_PERICENTER": 269.2074, "MEAN_ANOMALY": 251.526, "EPHEMERIS_TYPE": 0, "CLASSIFICATION_TYPE": "U", "NORAD_CAT_ID": 66603, "ELEMENT_SET_NO": 999, "REV_AT_EPOCH": 518, "BSTAR": 0.00039437738, "MEAN_MOTION_DOT": 0.00016198, "MEAN_MOTION_DDOT": 0}, "tle": {"line1": "1 66603U 25270R   25352.25003472  .00016198  00000+0  39438-3 0  9991", "line2": "2 66603  42.9994 160.6620 0001426 269.2074 251.5260 15.40686151  5186"}}, "geometry": {"type": "Point", "coordinates": [-21.197391928182448, -0.0269557538301823]}}, {"type": "Feature", "properties": {"norad_id": 66604, "name": "STARLINK-35977", "group": "last-30-days", "lat": -16.681226628700717, "lon": -2.5288258441825597, "alt_km": 445.21256538440593, "timestamp": "2025-12-18T13:51:48.378978+00:00", "meta": {"OBJECT_NAME": "STARLINK-35977", "OBJECT_ID": "2025-270S", "EPOCH": "2025-12-18T06:00:02.999808", "MEAN_MOTION": 15.40682206, "ECCENTRICITY": 0.00019845, "INCLINATION": 42.9997, "RA_OF_ASC_NODE": 160.6013, "ARG_OF_PERICENTER": 270.6974, "MEAN_ANOMALY": 274.9126, "EPHEMERIS_TYPE": 0, "CLASSIFICATION_TYPE": "U", "NORAD_CAT_ID": 66604, "ELEMENT_SET_NO": 999, "REV_AT_EPOCH": 528, "BSTAR": 0.00038895676, "MEAN_MOTION_DOT": 0.00015969, "MEAN_MOTION_DDOT": 0}, "tle": {"line1": "1 66604U 25270S   25352.25003472  .00015969  00000+0  38896-3 0  9994", "line2": "2 66604  42.9997 160.6013 0001984 270.6974 274.9126 15.40682206  5288"}}, "geometry": {"type": "Point", "coordinates": [-2.5288258441825597, -16.681226628700717]}}, {"type": "Feature", "properties": {"norad_id": 66605, "name": "STARLINK-36052", "group": "last-30-days", "lat": -42.007058472089696, "lon": 83.39391440441591, "alt_km": 422.105765138931, "timestamp": "2025-12-18T13:51:48.378989+00:00", "meta": {"OBJECT_NAME": "STARLINK-36052", "OBJECT_ID": "2025-270T", "EPOCH": "2025-12-17T13:26:50.242272", "MEAN_MOTION": 15.49687619, "ECCENTRICITY": 0.00016984, "INCLINATION": 42.9991, "RA_OF_ASC_NODE": 164.4677, "ARG_OF_PERICENTER": 286.8889, "MEAN_ANOMALY": 73.1785, "EPHEMERIS_TYPE": 0, "CLASSIFICATION_TYPE": "U", "NORAD_CAT_ID": 66605, "ELEMENT_SET_NO": 999, "REV_AT_EPOCH": 509, "BSTAR": -0.006954421, "MEAN_MOTION_DOT": -0.00377141, "MEAN_MOTION_DDOT": 0}, "tle": {"line1": "1 66605U 25270T   25351.56030373 -.00377141  00000+0 -69544-2 0  9996", "line2": "2 66605  42.9991 164.4677 0001698 286.8889  73.1785 15.49687619  5098"}}, "geometry": {"type": "Point", "coordinates": [83.39391440441591, -42.007058472089696]}}, {"type": "Feature", "properties": {"norad_id": 66606, "name": "STARLINK-36063", "group": "last-30-days", "lat": -39.6852810281721, "lon": 95.5673425846729, "alt_km": 416.8121243141277, "timestamp": "2025-12-18T13:51:48.379000+00:00", "meta": {"OBJECT_NAME": "STARLINK-36063", "OBJECT_ID": "2025-270U", "EPOCH": "2025-12-17T22:42:11.692224", "MEAN_MOTION": 15.50601756, "ECCENTRICITY": 0.00016763, "INCLINATION": 42.9989, "RA_OF_ASC_NODE": 162.2001, "ARG_OF_PERICENTER": 270.011, "MEAN_ANOMALY": 90.0558, "EPHEMERIS_TYPE": 0, "CLASSIFICATION_TYPE": "U", "NORAD_CAT_ID": 66606, "ELEMENT_SET_NO": 999, "REV_AT_EPOCH": 515, "BSTAR": 0.0013751812, "MEAN_MOTION_DOT": 0.00081242, "MEAN_MOTION_DDOT": 0}, "tle": {"line1": "1 66606U 25270U   25351.94596866  .00081242  00000+0  13752-2 0  9995", "line2": "2 66606  42.9989 162.2001 0001676 270.0110  90.0558 15.50601756  5154"}}, "geometry": {"type": "Point", "coordinates": [95.5673425846729, -39.6852810281721]}}, {"type": "Feature", "properties": {"norad_id": 66607, "name": "STARLINK-35993", "group": "last-30-days", "lat": -42.114381539711154, "lon": 82.56323216459114, "alt_km": 430.6264322725265, "timestamp": "2025-12-18T13:51:48.379011+00:00", "meta": {"OBJECT_NAME": "STARLINK-35993", "OBJECT_ID": "2025-270V", "EPOCH": "2025-12-18T06:00:02.999808", "MEAN_MOTION": 15.47587223, "ECCENTRICITY": 0.00012447, "INCLINATION": 42.9996, "RA_OF_ASC_NODE": 160.4354, "ARG_OF_PERICENTER": 248.3892, "MEAN_ANOMALY": 5.4844, "EPHEMERIS_TYPE": 0, "CLASSIFICATION_TYPE": "U", "NORAD_CAT_ID": 66607, "ELEMENT_SET_NO": 999, "REV_AT_EPOCH": 518, "BSTAR": -0.04457484, "MEAN_MOTION_DOT": -0.02089009, "MEAN_MOTION_DDOT": 0}, "tle": {"line1": "1 66607U 25270V   25352.25003472 -.02089009  00000+0 -44575-1 0  9996", "line2": "2 66607  42.9996 160.4354 0001244 248.3892   5.4844 15.47587223  5189"}}, "geometry": {"type": "Point", "coordinates": [82.56323216459114, -42.114381539711154]}}, {"type": "Feature", "properties": {"norad_id": 66608, "name": "STARLINK-36036", "group": "last-30-days", "lat": -39.07401842039146, "lon": 97.88389351515602, "alt_km": 416.9540561130498, "timestamp": "2025-12-18T13:51:48.379024+00:00", "meta": {"OBJECT_NAME": "STARLINK-36036", "OBJECT_ID": "2025-270W", "EPOCH": "2025-12-17T22:41:41.967168", "MEAN_MOTION": 15.50612023, "ECCENTRICITY": 0.00015717, "INCLINATION": 42.9988, "RA_OF_ASC_NODE": 162.1971, "ARG_OF_PERICENTER": 270.485, "MEAN_ANOMALY": 89.583, "EPHEMERIS_TYPE": 0, "CLASSIFICATION_TYPE": "U", "NORAD_CAT_ID": 66608, "ELEMENT_SET_NO": 999, "REV_AT_EPOCH": 499, "BSTAR": 0.00079368877, "MEAN_MOTION_DOT": 0.00046553, "MEAN_MOTION_DDOT": 0}, "tle": {"line1": "1 66608U 25270W   25351.94562462  .00046553  00000+0  79369-3 0  9995", "line2": "2 66608  42.9988 162.1971 0001571 270.4850  89.5830 15.50612023  4995"}}, "geometry": {"type": "Point", "coordinates": [97.88389351515602, -39.07401842039146]}}, {"type": "Feature", "properties": {"norad_id": 66609, "name": "STARLINK-36034", "group": "last-30-days", "lat": -38.397390721204445, "lon": 100.22719609830054, "alt_km": 416.87027885354837, "timestamp": "2025-12-18T13:51:48.379039+00:00", "meta": {"OBJECT_NAME": "STARLINK-36034", "OBJECT_ID": "2025-270X", "EPOCH": "2025-12-17T22:41:12.262848", "MEAN_MOTION": 15.50621431, "ECCENTRICITY": 0.00015735, "INCLINATION": 42.9987, "RA_OF_ASC_NODE": 162.1953, "ARG_OF_PERICENTER": 271.4905, "MEAN_ANOMALY": 88.5774, "EPHEMERIS_TYPE": 0, "CLASSIFICATION_TYPE": "U", "NORAD_CAT_ID": 66609, "ELEMENT_SET_NO": 999, "REV_AT_EPOCH": 499, "BSTAR": 0.00092870074, "MEAN_MOTION_DOT": 0.00054605, "MEAN_MOTION_DDOT": 0}, "tle": {"line1": "1 66609U 25270X   25351.94528082  .00054605  00000+0  92870-3 0  9995", "line2": "2 66609  42.9987 162.1953 0001573 271.4905  88.5774 15.50621431  4998"}}, "geometry": {"type": "Point", "coordinates": [100.22719609830054, -38.397390721204445]}}]}